{"type": "FeatureCollection", "features": [ {"type": "Feature", "properties": {"norad_id": 66960, "name": "STARLINK-35879", "group": "last-30-days", "lat": 36.15819184453159, "lon": -153.506811666567, "alt_km": 393.85690940268887, "timestamp": "2025-12-27T09:28:55.185674+00:00", "meta": {"OBJECT_NAME": "STARLINK-35879", "OBJECT_ID": "2025-288B", "EPOCH": "2025-12-27T04:00:01.998720", "MEAN_MOTION": 15.57183297, "ECCENTRICITY": 0.0001241, "INCLINATION": 42.9998, "RA_OF_ASC_NODE": 79.4906, "ARG_OF_PERICENTER": 263.7526, "MEAN_ANOMALY": 14.8167, "EPHEMERIS_TYPE": 0, "CLASSIFICATION_TYPE": "U", "NORAD_CAT_ID": 66960, "ELEMENT_SET_NO": 999, "REV_AT_EPOCH": 414, "BSTAR": -0.030615, "MEAN_MOTION_DOT": -0.02041494, "MEAN_MOTION_DDOT": 0}, "tle": {"line1": "1 66960U 25288B   25361.16668980 -.02041494  00000+0 -30615-1 0  9994", "line2": "2 66960  42.9998  79.4906 0001241 263.7526  14.8167 15.57183297  4148"}}, "geometry": {"type": "Point", "coordinates": [-153.506811666567, 36.15819184453159]}}, {"type": "Feature", "properties": {"norad_id": 66961, "name": "STARLINK-35761", "group": "last-30-days", "lat": 35.326784695506426, "lon": -151.37861176231428, "alt_km": 394.0181258431958, "timestamp": "2025-12-27T09:28:55.185684+00:00", "meta": {"OBJECT_NAME": "STARLINK-35761", "OBJECT_ID": "2025-288C", "EPOCH": "2025-12-27T04:00:01.998720", "MEAN_MOTION": 15.57185827, "ECCENTRICITY": 0.0001282, "INCLINATION": 42.9996, "RA_OF_ASC_NODE": 79.4861, "ARG_OF_PERICENTER": 265.9734, "MEAN_ANOMALY": 14.5129, "EPHEMERIS_TYPE": 0, "CLASSIFICATION_TYPE": "U", "NORAD_CAT_ID": 66961, "ELEMENT_SET_NO": 999, "REV_AT_EPOCH": 414, "BSTAR": -0.030691, "MEAN_MOTION_DOT": -0.02046221, "MEAN_MOTION_DDOT": 0}, "tle": {"line1": "1 66961U 25288C   25361.16668980 -.02046221  00000+0 -30691-1 0  9992", "line2": "2 66961  42.9996  79.4861 0001282 265.9734  14.5129 15.57185827  4143"}}, "geometry": {"type": "Point", "coordinates": [-151.37861176231428, 35.326784695506426]}}, {"type": "Feature", "properties": {"norad_id": 66962, "name": "STARLINK-35874", "group": "last-30-days", "lat": 34.46178805097999, "lon": -149.30092798652717, "alt_km": 394.24245690023236, "timestamp": "2025-12-27T09:28:55.185694+00:00", "meta": {"OBJECT_NAME": "STARLINK-35874", "OBJECT_ID": "2025-288D", "EPOCH": "2025-12-27T04:00:01.998720", "MEAN_MOTION": 15.57179592, "ECCENTRICITY": 0.0001461, "INCLINATION": 43, "RA_OF_ASC_NODE": 79.4813, "ARG_OF_PERICENTER": 266.8362, "MEAN_ANOMALY": 15.566, "EPHEMERIS_TYPE": 0, "CLASSIFICATION_TYPE": "U", "NORAD_CAT_ID": 66962, "ELEMENT_SET_NO": 999, "REV_AT_EPOCH": 414, "BSTAR": -0.030481, "MEAN_MOTION_DOT": -0.02033404, "MEAN_MOTION_DDOT": 0}, "tle": {"line1": "1 66962U 25288D   25361.16668980 -.02033404  00000+0 -30481-1 0  9999", "line2": "2 66962  43.0000  79.4813 0001461 266.8362  15.5660 15.57179592  4148"}}, "geometry": {"type": "Point", "coordinates": [-149.30092798652717, 34.46178805097999]}}, {"type": "Feature", "properties": {"norad_id": 66963, "name": "STARLINK-36133", "group": "last-30-days", "lat": 33.55810706174795, "lon": -147.2591404204048, "alt_km": 394.3016738937322, "timestamp": "2025-12-27T09:28:55.185704+00:00", "meta": {"OBJECT_NAME": "STARLINK-36133", "OBJECT_ID": "2025-288E", "EPOCH": "2025-12-27T04:00:01.998720", "MEAN_MOTION": 15.57187609, "ECCENTRICITY": 0.0001446, "INCLINATION": 42.9998, "RA_OF_ASC_NODE": 79.4764, "ARG_OF_PERICENTER": 262.895, "MEAN_ANOMALY": 21.4252, "EPHEMERIS_TYPE": 0, "CLASSIFICATION_TYPE": "U", "NORAD_CAT_ID": 66963, "ELEMENT_SET_NO": 999, "REV_AT_EPOCH": 414, "BSTAR": -0.030707, "MEAN_MOTION_DOT": -0.02047399, "MEAN_MOTION_DDOT": 0}, "tle": {"line1": "1 66963U 25288E   25361.16668980 -.02047399  00000+0 -30707-1 0  9999", "line2": "2 66963  42.9998  79.4764 0001446 262.8950  21.4252 15.57187609  4141"}}, "geometry": {"type": "Point", "coordinates": [-147.2591404204048, 33.55810706174795]}}, {"type": "Feature", "properties": {"norad_id": 66964, "name": "STARLINK-36104", "group": "last-30-days", "lat": 32.623859941204685, "lon": -145.26481466003384, "alt_km": 394.46220633457233, "timestamp": "2025-12-27T09:28:55.185715+00:00", "meta": {"OBJECT_NAME": "STARLINK-36104", "OBJECT_ID": "2025-288F", "EPOCH": "2025-12-27T04:00:01.998720", "MEAN_MOTION": 15.57184422, "ECCENTRICITY": 0.0001445, "INCLINATION": 43.0001, "RA_OF_ASC_NODE": 79.4712, "ARG_OF_PERICENTER": 265.4057, "MEAN_ANOMALY": 20.8315, "EPHEMERIS_TYPE": 0, "CLASSIFICATION_TYPE": "U", "NORAD_CAT_ID": 66964, "ELEMENT_SET_NO": 999, "REV_AT_EPOCH": 414, "BSTAR": -0.03062, "MEAN_MOTION_DOT": -0.02042004, "MEAN_MOTION_DDOT": 0}, "tle": {"line1": "1 66964U 25288F   25361.16668980 -.02042004  00000+0 -30620-1 0  9992", "line2": "2 66964  43.0001  79.4712 0001445 265.4057  20.8315 15.57184422  4141"}}, "geometry": {"type": "Point", "coordinates": [-145.26481466003384, 32.623859941204685]}}, {"type": "Feature", "properties": {"norad_id": 66965, "name": "STARLINK-36067", "group": "last-30-days", "lat": 31.6568073353959, "lon": -143.3086749585097, "alt_km": 394.54530525161226, "timestamp": "2025-12-27T09:28:55.185726+00:00", "meta": {"OBJECT_NAME": "STARLINK-36067", "OBJECT_ID": "2025-288G", "EPOCH": "2025-12-27T04:00:01.998720", "MEAN_MOTION": 15.57186318, "ECCENTRICITY": 0.0001298, "INCLINATION": 42.9999, "RA_OF_ASC_NODE": 79.4672, "ARG_OF_PERICENTER": 267.1295, "MEAN_ANOMALY": 21.025, "EPHEMERIS_TYPE": 0, "CLASSIFICATION_TYPE": "U", "NORAD_CAT_ID": 66965, "ELEMENT_SET_NO": 999, "REV_AT_EPOCH": 414, "BSTAR": -0.030716, "MEAN_MOTION_DOT": -0.02047728, "MEAN_MOTION_DDOT": 0}, "tle": {"line1": "1 66965U 25288G   25361.16668980 -.02047728  00000+0 -30716-1 0  9997", "line2": "2 66965  42.9999  79.4672 0001298 267.1295  21.0250 15.57186318  4147"}}, "geometry": {"type": "Point", "coordinates": [-143.3086749585097, 31.6568073353959]}}, {"type": "Feature", "properties": {"norad_id": 66966, "name": "STARLINK-36139", "group": "last-30-days", "lat": 30.662380083528603, "lon": -141.39804184386753, "alt_km": 394.812917008825, "timestamp": "2025-12-27T09:28:55.185737+00:00", "meta": {"OBJECT_NAME": "STARLINK-36139", "OBJECT_ID": "2025-288H", "EPOCH": "2025-12-27T04:00:01.998720", "MEAN_MOTION": 15.57186152, "ECCENTRICITY": 0.0001524, "INCLINATION": 42.9999, "RA_OF_ASC_NODE": 79.462, "ARG_OF_PERICENTER": 268.2701, "MEAN_ANOMALY": 21.8015, "EPHEMERIS_TYPE": 0, "CLASSIFICATION_TYPE": "U", "NORAD_CAT_ID": 66966, "ELEMENT_SET_NO": 999, "REV_AT_EPOCH": 414, "BSTAR": -0.030702, "MEAN_MOTION_DOT": -0.02047036, "MEAN_MOTION_DDOT": 0}, "tle": {"line1": "1 66966U 25288H   25361.16668980 -.02047036  00000+0 -30702-1 0  9995", "line2": "2 66966  42.9999  79.4620 0001524 268.2701  21.8015 15.57186152  4140"}}, "geometry": {"type": "Point", "coordinates": [-141.39804184386753, 30.662380083528603]}}, {"type": "Feature", "properties": {"norad_id": 66967, "name": "STARLINK-36136", "group": "last-30-days", "lat": 29.639913624875113, "lon": -139.5252288026721, "alt_km": 394.85731075329477, "timestamp": "2025-12-27T09:28:55.185749+00:00", "meta": {"OBJECT_NAME": "STARLINK-36136", "OBJECT_ID": "2025-288J", "EPOCH": "2025-12-27T04:00:01.998720", "MEAN_MOTION": 15.57187122, "ECCENTRICITY": 0.0001369, "INCLINATION": 43.0001, "RA_OF_ASC_NODE": 79.4573, "ARG_OF_PERICENTER": 267.4071, "MEAN_ANOMALY": 24.5795, "EPHEMERIS_TYPE": 0, "CLASSIFICATION_TYPE": "U", "NORAD_CAT_ID": 66967, "ELEMENT_SET_NO": 999, "REV_AT_EPOCH": 414, "BSTAR": -0.03069, "MEAN_MOTION_DOT": -0.02046321, "MEAN_MOTION_DDOT": 0}, "tle": {"line1": "1 66967U 25288J   25361.16668980 -.02046321  00000+0 -30690-1 0  9998", "line2": "2 66967  43.0001  79.4573 0001369 267.4071  24.5795 15.57187122  4145"}}, "geometry": {"type": "Point", "coordinates": [-139.5252288026721, 29.639913624875113]}}, {"type": "Feature", "properties": {"norad_id": 66968, "name": "STARLINK-36152", "group": "last-30-days", "lat": 28.591532878163548, "lon": -137.69157099151198, "alt_km": 395.06099051290494, "timestamp": "2025-12-27T09:28:55.185759+00:00", "meta": {"OBJECT_NAME": "STARLINK-36152", "OBJECT_ID": "2025-288K", "EPOCH": "2025-12-27T04:00:01.998720", "MEAN_MOTION": 15.57181702, "ECCENTRICITY": 0.0001431, "INCLINATION": 43, "RA_OF_ASC_NODE": 79.4521, "ARG_OF_PERICENTER": 269.1357, "MEAN_ANOMALY": 24.7705, "EPHEMERIS_TYPE": 0, "CLASSIFICATION_TYPE": "U", "NORAD_CAT_ID": 66968, "ELEMENT_SET_NO": 999, "REV_AT_EPOCH": 414, "BSTAR": -0.03058, "MEAN_MOTION_DOT": -0.02039439, "MEAN_MOTION_DDOT": 0}, "tle": {"line1": "1 66968U 25288K   25361.16668980 -.02039439  00000+0 -30580-1 0  9999", "line2": "2 66968  43.0000  79.4521 0001431 269.1357  24.7705 15.57181702  4145"}}, "geometry": {"type": "Point", "coordinates": [-137.69157099151198, 28.591532878163548]}}, {"type": "Feature", "properties": {"norad_id": 66969, "name": "STARLINK-36149", "group": "last-30-days", "lat": 23.01441617809109, "lon": -129.03949238710717, "alt_km": 395.72475953279445, "timestamp": "2025-12-27T09:28:55.185769+00:00", "meta": {"OBJECT_NAME": "STARLINK-36149", "OBJECT_ID": "2025-288L", "EPOCH": "2025-12-27T04:00:01.998720", "MEAN_MOTION": 15.57181954, "ECCENTRICITY": 0.0001404, "INCLINATION": 42.9998, "RA_OF_ASC_NODE": 79.4282, "ARG_OF_PERICENTER": 264.7665, "MEAN_ANOMALY": 38.724, "EPHEMERIS_TYPE": 0, "CLASSIFICATION_TYPE": "U", "NORAD_CAT_ID": 66969, "ELEMENT_SET_NO": 999, "REV_AT_EPOCH": 414, "BSTAR": -0.030515, "MEAN_MOTION_DOT": -0.02035529, "MEAN_MOTION_DDOT": 0}, "tle": {"line1": "1 66969U 25288L   25361.16668980 -.02035529  00000+0 -30515-1 0  9994", "line2": "2 66969  42.9998  79.4282 0001404 264.7665  38.7240 15.57181954  4145"}}, "geometry": {"type": "Point", "coordinates": [-129.03949238710717, 23.01441617809109]}}]}